{"fetched_at":"2026-07-15T06:35:39.467Z","source":"https://celestrak.org/NORAD/elements/gp.php?GROUP=qianfan&FORMAT=JSON","constellation":"qianfan","records":[{"OBJECT_NAME":"QIANFAN-113","OBJECT_ID":"2026-075E","EPOCH":"2026-07-14T22:05:50.300448","CLASSIFICATION_TYPE":"U","MEAN_MOTION":13.51018389,"ECCENTRICITY":0.00019727,"INCLINATION":88.9919,"RA_OF_ASC_NODE":318.1651,"ARG_OF_PERICENTER":106.6442,"MEAN_ANOMALY":253.4925,"EPHEMERIS_TYPE":0,"NORAD_CAT_ID":68640,"ELEMENT_SET_NO":999,"REV_AT_EPOCH":1355,"BSTAR":0.000095069546,"MEAN_MOTION_DOT":7.3e-7,"MEAN_MOTION_DDOT":0},{"OBJECT_NAME":"QIANFAN-114","OBJECT_ID":"2026-075F","EPOCH":"2026-07-14T20:30:59.167008","CLASSIFICATION_TYPE":"U","MEAN_MOTION":13.51017157,"ECCENTRICITY":0.00020469,"INCLINATION":88.9914,"RA_OF_ASC_NODE":318.1896,"ARG_OF_PERICENTER":104.0614,"MEAN_ANOMALY":256.0765,"EPHEMERIS_TYPE":0,"NORAD_CAT_ID":68641,"ELEMENT_SET_NO":999,"REV_AT_EPOCH":1353,"BSTAR":0.00009131344,"MEAN_MOTION_DOT":7.1e-7,"MEAN_MOTION_DDOT":0},{"OBJECT_NAME":"QIANFAN-115","OBJECT_ID":"2026-075G","EPOCH":"2026-07-14T21:12:20.611296","CLASSIFICATION_TYPE":"U","MEAN_MOTION":13.51013796,"ECCENTRICITY":0.00021842,"INCLINATION":88.9914,"RA_OF_ASC_NODE":318.1939,"ARG_OF_PERICENTER":107.016,"MEAN_ANOMALY":253.1231,"EPHEMERIS_TYPE":0,"NORAD_CAT_ID":68642,"ELEMENT_SET_NO":999,"REV_AT_EPOCH":1353,"BSTAR":0.000031249514,"MEAN_MOTION_DOT":3.2e-7,"MEAN_MOTION_DDOT":0},{"OBJECT_NAME":"QIANFAN-116","OBJECT_ID":"2026-075H","EPOCH":"2026-07-14T20:54:34.473312","CLASSIFICATION_TYPE":"U","MEAN_MOTION":13.51014443,"ECCENTRICITY":0.00019428,"INCLINATION":88.9907,"RA_OF_ASC_NODE":318.1533,"ARG_OF_PERICENTER":113.9409,"MEAN_ANOMALY":246.1946,"EPHEMERIS_TYPE":0,"NORAD_CAT_ID":68643,"ELEMENT_SET_NO":999,"REV_AT_EPOCH":1354,"BSTAR":0.000073496829,"MEAN_MOTION_DOT":5.9e-7,"MEAN_MOTION_DDOT":0},{"OBJECT_NAME":"QIANFAN-117","OBJECT_ID":"2026-075J","EPOCH":"2026-07-14T22:23:26.312352","CLASSIFICATION_TYPE":"U","MEAN_MOTION":13.5102441,"ECCENTRICITY":0.00021184,"INCLINATION":88.9912,"RA_OF_ASC_NODE":318.1639,"ARG_OF_PERICENTER":110.648,"MEAN_ANOMALY":249.4898,"EPHEMERIS_TYPE":0,"NORAD_CAT_ID":68644,"ELEMENT_SET_NO":999,"REV_AT_EPOCH":1355,"BSTAR":0.000095977349,"MEAN_MOTION_DOT":7.4e-7,"MEAN_MOTION_DDOT":0},{"OBJECT_NAME":"QIANFAN-118","OBJECT_ID":"2026-075K","EPOCH":"2026-07-14T21:24:11.972736","CLASSIFICATION_TYPE":"U","MEAN_MOTION":13.51014186,"ECCENTRICITY":0.00019684,"INCLINATION":88.9916,"RA_OF_ASC_NODE":318.1774,"ARG_OF_PERICENTER":101.568,"MEAN_ANOMALY":258.5692,"EPHEMERIS_TYPE":0,"NORAD_CAT_ID":68645,"ELEMENT_SET_NO":999,"REV_AT_EPOCH":1354,"BSTAR":0.000095063529,"MEAN_MOTION_DOT":7.3e-7,"MEAN_MOTION_DDOT":0},{"OBJECT_NAME":"QIANFAN-119","OBJECT_ID":"2026-075L","EPOCH":"2026-07-14T20:48:43.199424","CLASSIFICATION_TYPE":"U","MEAN_MOTION":13.51020517,"ECCENTRICITY":0.00022243,"INCLINATION":88.9917,"RA_OF_ASC_NODE":318.1755,"ARG_OF_PERICENTER":112.6973,"MEAN_ANOMALY":247.4414,"EPHEMERIS_TYPE":0,"NORAD_CAT_ID":68646,"ELEMENT_SET_NO":999,"REV_AT_EPOCH":1354,"BSTAR":0.000065834505,"MEAN_MOTION_DOT":5.5e-7,"MEAN_MOTION_DDOT":0},{"OBJECT_NAME":"QIANFAN-120","OBJECT_ID":"2026-075M","EPOCH":"2026-07-14T21:06:39.444480","CLASSIFICATION_TYPE":"U","MEAN_MOTION":13.51020959,"ECCENTRICITY":0.00023761,"INCLINATION":88.9918,"RA_OF_ASC_NODE":318.1597,"ARG_OF_PERICENTER":113.0339,"MEAN_ANOMALY":247.1063,"EPHEMERIS_TYPE":0,"NORAD_CAT_ID":68647,"ELEMENT_SET_NO":999,"REV_AT_EPOCH":1355,"BSTAR":0.000086631048,"MEAN_MOTION_DOT":6.8e-7,"MEAN_MOTION_DDOT":0},{"OBJECT_NAME":"QIANFAN-121","OBJECT_ID":"2026-075N","EPOCH":"2026-07-14T21:42:01.247904","CLASSIFICATION_TYPE":"U","MEAN_MOTION":13.51013033,"ECCENTRICITY":0.00020388,"INCLINATION":88.9916,"RA_OF_ASC_NODE":318.1616,"ARG_OF_PERICENTER":102.218,"MEAN_ANOMALY":257.92,"EPHEMERIS_TYPE":0,"NORAD_CAT_ID":68648,"ELEMENT_SET_NO":999,"REV_AT_EPOCH":1355,"BSTAR":0.00007389324,"MEAN_MOTION_DOT":6e-7,"MEAN_MOTION_DDOT":0},{"OBJECT_NAME":"QIANFAN-122","OBJECT_ID":"2026-075P","EPOCH":"2026-07-14T21:30:20.708928","CLASSIFICATION_TYPE":"U","MEAN_MOTION":13.51016735,"ECCENTRICITY":0.00021407,"INCLINATION":88.9915,"RA_OF_ASC_NODE":318.1603,"ARG_OF_PERICENTER":112.9154,"MEAN_ANOMALY":247.2224,"EPHEMERIS_TYPE":0,"NORAD_CAT_ID":68649,"ELEMENT_SET_NO":999,"REV_AT_EPOCH":1354,"BSTAR":0.000090914458,"MEAN_MOTION_DOT":7.1e-7,"MEAN_MOTION_DDOT":0},{"OBJECT_NAME":"QIANFAN-123","OBJECT_ID":"2026-075Q","EPOCH":"2026-07-14T22:29:39.203520","CLASSIFICATION_TYPE":"U","MEAN_MOTION":13.51015124,"ECCENTRICITY":0.00022478,"INCLINATION":88.9911,"RA_OF_ASC_NODE":318.1452,"ARG_OF_PERICENTER":118.0259,"MEAN_ANOMALY":242.112,"EPHEMERIS_TYPE":0,"NORAD_CAT_ID":68650,"ELEMENT_SET_NO":999,"REV_AT_EPOCH":1353,"BSTAR":0.000075138837,"MEAN_MOTION_DOT":6.1e-7,"MEAN_MOTION_DDOT":0},{"OBJECT_NAME":"QIANFAN-124","OBJECT_ID":"2026-075R","EPOCH":"2026-07-14T21:18:30.207168","CLASSIFICATION_TYPE":"U","MEAN_MOTION":13.51016294,"ECCENTRICITY":0.00021559,"INCLINATION":88.9914,"RA_OF_ASC_NODE":318.1599,"ARG_OF_PERICENTER":114.9032,"MEAN_ANOMALY":245.2343,"EPHEMERIS_TYPE":0,"NORAD_CAT_ID":68651,"ELEMENT_SET_NO":999,"REV_AT_EPOCH":1355,"BSTAR":0.000095869587,"MEAN_MOTION_DOT":7.4e-7,"MEAN_MOTION_DDOT":0},{"OBJECT_NAME":"QIANFAN-125","OBJECT_ID":"2026-075S","EPOCH":"2026-07-14T21:36:06.353856","CLASSIFICATION_TYPE":"U","MEAN_MOTION":13.51013256,"ECCENTRICITY":0.00020115,"INCLINATION":88.9914,"RA_OF_ASC_NODE":318.1608,"ARG_OF_PERICENTER":102.4405,"MEAN_ANOMALY":257.6971,"EPHEMERIS_TYPE":0,"NORAD_CAT_ID":68652,"ELEMENT_SET_NO":999,"REV_AT_EPOCH":1355,"BSTAR":0.000081463711,"MEAN_MOTION_DOT":6.5e-7,"MEAN_MOTION_DDOT":0},{"OBJECT_NAME":"QIANFAN-126","OBJECT_ID":"2026-075T","EPOCH":"2026-07-14T21:48:04.105440","CLASSIFICATION_TYPE":"U","MEAN_MOTION":13.51018337,"ECCENTRICITY":0.00022577,"INCLINATION":88.9918,"RA_OF_ASC_NODE":318.1266,"ARG_OF_PERICENTER":117.5462,"MEAN_ANOMALY":242.5919,"EPHEMERIS_TYPE":0,"NORAD_CAT_ID":68653,"ELEMENT_SET_NO":999,"REV_AT_EPOCH":1357,"BSTAR":0.000069752389,"MEAN_MOTION_DOT":5.7e-7,"MEAN_MOTION_DDOT":0},{"OBJECT_NAME":"QIANFAN-127","OBJECT_ID":"2026-104A","EPOCH":"2026-07-14T20:57:49.580928","CLASSIFICATION_TYPE":"U","MEAN_MOTION":13.57855659,"ECCENTRICITY":0.00093345,"INCLINATION":88.9912,"RA_OF_ASC_NODE":338.6433,"ARG_OF_PERICENTER":7.5593,"MEAN_ANOMALY":352.5701,"EPHEMERIS_TYPE":0,"NORAD_CAT_ID":69073,"ELEMENT_SET_NO":999,"REV_AT_EPOCH":889,"BSTAR":0.00001431743,"MEAN_MOTION_DOT":2.3e-7,"MEAN_MOTION_DDOT":0},{"OBJECT_NAME":"QIANFAN-128","OBJECT_ID":"2026-104B","EPOCH":"2026-07-14T15:14:30.520608","CLASSIFICATION_TYPE":"U","MEAN_MOTION":13.53183871,"ECCENTRICITY":0.00092974,"INCLINATION":88.989,"RA_OF_ASC_NODE":338.7005,"ARG_OF_PERICENTER":41.614,"MEAN_ANOMALY":318.5718,"EPHEMERIS_TYPE":0,"NORAD_CAT_ID":69074,"ELEMENT_SET_NO":999,"REV_AT_EPOCH":884,"BSTAR":-3.0444513,"MEAN_MOTION_DOT":-0.0189499,"MEAN_MOTION_DDOT":0}]}
