QIANFAN-113             
1 68640U 26075E   26195.92072107  .00000073  00000+0  95070-4 0  9999
2 68640  88.9919 318.1651 0001972 106.6442 253.4925 13.51018389 13550
QIANFAN-114             
1 68641U 26075F   26195.85485147  .00000071  00000+0  91313-4 0  9998
2 68641  88.9914 318.1896 0002046 104.0614 256.0765 13.51017157 13534
QIANFAN-115             
1 68642U 26075G   26195.88357189  .00000032  00000+0  31250-4 0  9997
2 68642  88.9914 318.1939 0002184 107.0160 253.1231 13.51013796 13536
QIANFAN-116             
1 68643U 26075H   26195.87123233  .00000059  00000+0  73497-4 0  9996
2 68643  88.9907 318.1533 0001942 113.9409 246.1946 13.51014443 13548
QIANFAN-117             
1 68644U 26075J   26195.93294343  .00000074  00000+0  95977-4 0  9999
2 68644  88.9912 318.1639 0002118 110.6480 249.4898 13.51024410 13559
QIANFAN-118             
1 68645U 26075K   26195.89180524  .00000073  00000+0  95064-4 0  9996
2 68645  88.9916 318.1774 0001968 101.5680 258.5692 13.51014186 13548
QIANFAN-119             
1 68646U 26075L   26195.86716666  .00000055  00000+0  65835-4 0  9999
2 68646  88.9917 318.1755 0002224 112.6973 247.4414 13.51020517 13547
QIANFAN-120             
1 68647U 26075M   26195.87962320  .00000068  00000+0  86631-4 0  9992
2 68647  88.9918 318.1597 0002376 113.0339 247.1063 13.51020959 13550
QIANFAN-121             
1 68648U 26075N   26195.90418111  .00000060  00000+0  73893-4 0  9999
2 68648  88.9916 318.1616 0002038 102.2180 257.9200 13.51013033 13557
QIANFAN-122             
1 68649U 26075P   26195.89607302  .00000071  00000+0  90914-4 0  9995
2 68649  88.9915 318.1603 0002140 112.9154 247.2224 13.51016735 13545
QIANFAN-123             
1 68650U 26075Q   26195.93725930  .00000061  00000+0  75139-4 0  9991
2 68650  88.9911 318.1452 0002247 118.0259 242.1120 13.51015124 13535
QIANFAN-124             
1 68651U 26075R   26195.88784962  .00000074  00000+0  95870-4 0  9994
2 68651  88.9914 318.1599 0002155 114.9032 245.2343 13.51016294 13555
QIANFAN-125             
1 68652U 26075S   26195.90007354  .00000065  00000+0  81464-4 0  9995
2 68652  88.9914 318.1608 0002011 102.4405 257.6971 13.51013256 13553
QIANFAN-126             
1 68653U 26075T   26195.90838085  .00000057  00000+0  69752-4 0  9996
2 68653  88.9918 318.1266 0002257 117.5462 242.5919 13.51018337 13572
QIANFAN-127             
1 69073U 26104A   26195.87349052  .00000023  00000+0  14317-4 0  9993
2 69073  88.9912 338.6433 0009334   7.5593 352.5701 13.57855659  8894
QIANFAN-128             
1 69074U 26104B   26195.63507547 -.01894990  00000+0 -30445+1 0  9996
2 69074  88.9890 338.7005 0009297  41.6140 318.5718 13.53183871  8842
